{
  "type": "FeatureCollection",
  "features": [
    {
      "type": "Feature",
      "properties": {
        "norad_id": 30274,
        "name": "FENGYUN 1C DEB",
        "group": "fengyun-1c-debris",
        "lat": 78.5177949195873,
        "lon": -14.24382383873839,
        "alt_km": 714.924655279211,
        "timestamp": "2025-12-09T14:52:26.436929+00:00",
        "meta_object_name": "FENGYUN 1C DEB",
        "meta_object_id": "1999-025YK",
        "meta_epoch": "2025-12-09T08:03:51.059232",
        "meta_mean_motion": 14.51516433,
        "meta_eccentricity": 0.00048142,
        "meta_inclination": 99.3023,
        "meta_ra_of_asc_node": 111.6482,
        "meta_arg_of_pericenter": 215.8967,
        "meta_mean_anomaly": 199.046,
        "meta_ephemeris_type": 0,
        "meta_classification_type": "U",
        "meta_norad_cat_id": 30274,
        "meta_element_set_no": 999,
        "meta_rev_at_epoch": 98161,
        "meta_bstar": 0.0037648211,
        "meta_mean_motion_dot": 0.00015036,
        "meta_mean_motion_ddot": 0,
        "tle_line1": "1 30274U 99025YK  25343.33600763  .00015036  00000+0  37648-2 0  9990",
        "tle_line2": "2 30274  99.3023 111.6482 0004814 215.8967 199.0460 14.51516433981619"
      },
      "geometry": {
        "type": "Point",
        "coordinates": [
          -14.24382383873839,
          78.5177949195873
        ]
      }
    },
    {
      "type": "Feature",
      "properties": {
        "norad_id": 30275,
        "name": "FENGYUN 1C DEB",
        "group": "fengyun-1c-debris",
        "lat": 59.76455976051558,
        "lon": -97.06973958796625,
        "alt_km": 728.7688405956742,
        "timestamp": "2025-12-09T14:52:26.436939+00:00",
        "meta_object_name": "FENGYUN 1C DEB",
        "meta_object_id": "1999-025YL",
        "meta_epoch": "2025-12-09T04:39:47.691936",
        "meta_mean_motion": 14.4520004,
        "meta_eccentricity": 0.00399309,
        "meta_inclination": 98.6283,
        "meta_ra_of_asc_node": 67.3974,
        "meta_arg_of_pericenter": 196.7923,
        "meta_mean_anomaly": 230.4725,
        "meta_ephemeris_type": 0,
        "meta_classification_type": "U",
        "meta_norad_cat_id": 30275,
        "meta_element_set_no": 999,
        "meta_rev_at_epoch": 98033,
        "meta_bstar": 0.002894048,
        "meta_mean_motion_dot": 0.00010207,
        "meta_mean_motion_ddot": 0,
        "tle_line1": "1 30275U 99025YL  25343.19430199  .00010207  00000+0  28940-2 0  9999",
        "tle_line2": "2 30275  98.6283  67.3974 0039930 196.7923 230.4725 14.45200040980338"
      },
      "geometry": {
        "type": "Point",
        "coordinates": [
          -97.06973958796625,
          59.76455976051558
        ]
      }
    },
    {
      "type": "Feature",
      "properties": {
        "norad_id": 30276,
        "name": "FENGYUN 1C DEB",
        "group": "fengyun-1c-debris",
        "lat": -80.32614202312507,
        "lon": 168.9535778327113,
        "alt_km": 826.7132133098803,
        "timestamp": "2025-12-09T14:52:26.436950+00:00",
        "meta_object_name": "FENGYUN 1C DEB",
        "meta_object_id": "1999-025YM",
        "meta_epoch": "2025-12-09T03:32:07.727424",
        "meta_mean_motion": 14.2699052,
        "meta_eccentricity": 0.00252896,
        "meta_inclination": 98.8591,
        "meta_ra_of_asc_node": 54.673,
        "meta_arg_of_pericenter": 101.7636,
        "meta_mean_anomaly": 258.6383,
        "meta_ephemeris_type": 0,
        "meta_classification_type": "U",
        "meta_norad_cat_id": 30276,
        "meta_element_set_no": 999,
        "meta_rev_at_epoch": 97479,
        "meta_bstar": 0.001572857,
        "meta_mean_motion_dot": 3.795e-05,
        "meta_mean_motion_ddot": 0,
        "tle_line1": "1 30276U 99025YM  25343.14731166  .00003795  00000+0  15729-2 0  9998",
        "tle_line2": "2 30276  98.8591  54.6730 0025289 101.7636 258.6383 14.26990520974794"
      },
      "geometry": {
        "type": "Point",
        "coordinates": [
          168.9535778327113,
          -80.32614202312507
        ]
      }
    },
    {
      "type": "Feature",
      "properties": {
        "norad_id": 30277,
        "name": "FENGYUN 1C DEB",
        "group": "fengyun-1c-debris",
        "lat": 54.060013689318936,
        "lon": -113.13458053116993,
        "alt_km": 798.6600687659029,
        "timestamp": "2025-12-09T14:52:26.436960+00:00",
        "meta_object_name": "FENGYUN 1C DEB",
        "meta_object_id": "1999-025YN",
        "meta_epoch": "2025-12-09T04:13:20.861760",
        "meta_mean_motion": 14.13547228,
        "meta_eccentricity": 0.01240393,
        "meta_inclination": 98.9729,
        "meta_ra_of_asc_node": 53.8317,
        "meta_arg_of_pericenter": 187.781,
        "meta_mean_anomaly": 201.1328,
        "meta_ephemeris_type": 0,
        "meta_classification_type": "U",
        "meta_norad_cat_id": 30277,
        "meta_element_set_no": 999,
        "meta_rev_at_epoch": 96739,
        "meta_bstar": 0.0017031599,
        "meta_mean_motion_dot": 3.409e-05,
        "meta_mean_motion_ddot": 0,
        "tle_line1": "1 30277U 99025YN  25343.17593590  .00003409  00000+0  17032-2 0  9990",
        "tle_line2": "2 30277  98.9729  53.8317 0124039 187.7810 201.1328 14.13547228967391"
      },
      "geometry": {
        "type": "Point",
        "coordinates": [
          -113.13458053116993,
          54.060013689318936
        ]
      }
    },
    {
      "type": "Feature",
      "properties": {
        "norad_id": 30279,
        "name": "FENGYUN 1C DEB",
        "group": "fengyun-1c-debris",
        "lat": -28.902400718744857,
        "lon": 93.10720875864106,
        "alt_km": 915.1829868589766,
        "timestamp": "2025-12-09T14:52:26.436970+00:00",
        "meta_object_name": "FENGYUN 1C DEB",
        "meta_object_id": "1999-025YQ",
        "meta_epoch": "2025-12-08T19:37:11.330400",
        "meta_mean_motion": 14.23076799,
        "meta_eccentricity": 0.02198212,
        "meta_inclination": 99.1495,
        "meta_ra_of_asc_node": 277.3779,
        "meta_arg_of_pericenter": 83.8322,
        "meta_mean_anomaly": 335.6143,
        "meta_ephemeris_type": 0,
        "meta_classification_type": "U",
        "meta_norad_cat_id": 30279,
        "meta_element_set_no": 999,
        "meta_rev_at_epoch": 97555,
        "meta_bstar": 0.0011478007,
        "meta_mean_motion_dot": 3.27e-05,
        "meta_mean_motion_ddot": 0,
        "tle_line1": "1 30279U 99025YQ  25342.81749225  .00003270  00000+0  11478-2 0  9994",
        "tle_line2": "2 30279  99.1495 277.3779 0219821  83.8322 335.6143 14.23076799975555"
      },
      "geometry": {
        "type": "Point",
        "coordinates": [
          93.10720875864106,
          -28.902400718744857
        ]
      }
    },
    {
      "type": "Feature",
      "properties": {
        "norad_id": 30280,
        "name": "FENGYUN 1C DEB",
        "group": "fengyun-1c-debris",
        "lat": -71.0493475372112,
        "lon": 126.411899479871,
        "alt_km": 901.5404422900701,
        "timestamp": "2025-12-09T14:52:26.436980+00:00",
        "meta_object_name": "FENGYUN 1C DEB",
        "meta_object_id": "1999-025YR",
        "meta_epoch": "2025-12-08T22:27:44.269056",
        "meta_mean_motion": 13.98327686,
        "meta_eccentricity": 0.0080653,
        "meta_inclination": 98.7748,
        "meta_ra_of_asc_node": 332.4903,
        "meta_arg_of_pericenter": 340.2702,
        "meta_mean_anomaly": 73.3063,
        "meta_ephemeris_type": 0,
        "meta_classification_type": "U",
        "meta_norad_cat_id": 30280,
        "meta_element_set_no": 999,
        "meta_rev_at_epoch": 96353,
        "meta_bstar": 0.00021272,
        "meta_mean_motion_dot": 2.7e-06,
        "meta_mean_motion_ddot": 0,
        "tle_line1": "1 30280U 99025YR  25342.93592904  .00000270  00000+0  21272-3 0  9990",
        "tle_line2": "2 30280  98.7748 332.4903 0080653 340.2702  73.3063 13.98327686963533"
      },
      "geometry": {
        "type": "Point",
        "coordinates": [
          126.411899479871,
          -71.0493475372112
        ]
      }
    },
    {
      "type": "Feature",
      "properties": {
        "norad_id": 30281,
        "name": "FENGYUN 1C DEB",
        "group": "fengyun-1c-debris",
        "lat": -20.14330526162673,
        "lon": -23.24662579183082,
        "alt_km": 864.0243802095665,
        "timestamp": "2025-12-09T14:52:26.436991+00:00",
        "meta_object_name": "FENGYUN 1C DEB",
        "meta_object_id": "1999-025YS",
        "meta_epoch": "2025-12-08T23:58:21.771840",
        "meta_mean_motion": 14.10469996,
        "meta_eccentricity": 0.0027859,
        "meta_inclination": 98.7564,
        "meta_ra_of_asc_node": 332.9078,
        "meta_arg_of_pericenter": 248.0586,
        "meta_mean_anomaly": 180.4273,
        "meta_ephemeris_type": 0,
        "meta_classification_type": "U",
        "meta_norad_cat_id": 30281,
        "meta_element_set_no": 999,
        "meta_rev_at_epoch": 97168,
        "meta_bstar": 0.00036257,
        "meta_mean_motion_dot": 6.04e-06,
        "meta_mean_motion_ddot": 0,
        "tle_line1": "1 30281U 99025YS  25342.99886310  .00000604  00000+0  36257-3 0  9994",
        "tle_line2": "2 30281  98.7564 332.9078 0027859 248.0586 180.4273 14.10469996971686"
      },
      "geometry": {
        "type": "Point",
        "coordinates": [
          -23.24662579183082,
          -20.14330526162673
        ]
      }
    }
  ]
}